[{"name":"Hessel, Ortiz and Gerlach","street_address":"586 Springview Alley","street_address_2":"Room 1736","city":"Orlando","state":"Florida","zip_code":"32830","phone":"4079702576"},
{"name":"McDermott, Paucek and McLaughlin","street_address":"26 Merrick Street","street_address_2":"12th Floor","city":"Kansas City","state":"Missouri","zip_code":"64136","phone":"8162102227"},
{"name":"Boyle Inc","street_address":"61525 Shelley Drive","street_address_2":"Room 1637","city":"Saint Paul","state":"Minnesota","zip_code":"55108","phone":"6122401724"},
{"name":"Cormier Inc","street_address":"54360 Morning Center","street_address_2":"PO Box 65375","city":"Cleveland","state":"Ohio","zip_code":"44177","phone":"4403481925"},
{"name":"Stehr and Sons","street_address":"04134 Old Gate Lane","street_address_2":"2nd Floor","city":"Lansing","state":"Michigan","zip_code":"48912","phone":"5178167237"},
{"name":"Zieme Group","street_address":"991 Esch Court","street_address_2":"Apt 1357","city":"New York City","state":"New York","zip_code":"10249","phone":"2124022954"},
{"name":"Erdman Inc","street_address":"53366 Raven Street","street_address_2":"3rd Floor","city":"Chicago","state":"Illinois","zip_code":"60652","phone":"3126722712"},
{"name":"Fahey LLC","street_address":"0646 Jay Plaza","street_address_2":"Room 998","city":"Cleveland","state":"Ohio","zip_code":"44111","phone":"2164086252"},
{"name":"Murazik, Robel and Nader","street_address":"56505 Loomis Plaza","street_address_2":"Apt 406","city":"Shawnee Mission","state":"Kansas","zip_code":"66220","phone":"9135640054"},
{"name":"Purdy-Kuhn","street_address":"5804 Debra Street","street_address_2":"Suite 57","city":"Decatur","state":"Georgia","zip_code":"30033","phone":"7709726030"},
{"name":"Tremblay LLC","street_address":"08420 Sauthoff Avenue","street_address_2":"Room 1964","city":"Hartford","state":"Connecticut","zip_code":"06105","phone":"2039473435"},
{"name":"Rutherford-Haley","street_address":"2797 Stephen Road","street_address_2":"PO Box 57639","city":"Lancaster","state":"California","zip_code":"93584","phone":"6614892515"},
{"name":"Dach LLC","street_address":"5 Grasskamp Avenue","street_address_2":"Suite 60","city":"Panama City","state":"Florida","zip_code":"32412","phone":"8506327267"},
{"name":"Murphy, Ziemann and Reichert","street_address":"6350 Anthes Crossing","street_address_2":"Apt 1334","city":"Bridgeport","state":"Connecticut","zip_code":"06673","phone":"2036338150"},
{"name":"Auer LLC","street_address":"3144 Cody Center","street_address_2":"Apt 832","city":"Roanoke","state":"Virginia","zip_code":"24009","phone":"5402529346"},
{"name":"Funk, Turcotte and Herzog","street_address":"171 Chinook Street","street_address_2":"Apt 1630","city":"Cincinnati","state":"Ohio","zip_code":"45203","phone":"5133375698"},
{"name":"Lind-Jacobs","street_address":"441 North Alley","street_address_2":"Room 714","city":"San Antonio","state":"Texas","zip_code":"78240","phone":"2107395863"},
{"name":"Cartwright-Jakubowski","street_address":"4218 Stuart Place","street_address_2":"Suite 51","city":"El Paso","state":"Texas","zip_code":"88541","phone":"9158447567"},
{"name":"Prosacco, Torp and Stokes","street_address":"2 Del Mar Court","street_address_2":"13th Floor","city":"Battle Creek","state":"Michigan","zip_code":"49018","phone":"2694657411"},
{"name":"Bogisich Group","street_address":"4 Mendota Avenue","street_address_2":"PO Box 98808","city":"Los Angeles","state":"California","zip_code":"90076","phone":"3234366989"},
{"name":"Kerluke, Zboncak and Renner","street_address":"0 Dryden Terrace","street_address_2":"Room 310","city":"Gulfport","state":"Mississippi","zip_code":"39505","phone":"2285972592"},
{"name":"Kub-Hirthe","street_address":"534 Northfield Crossing","street_address_2":"PO Box 49970","city":"Louisville","state":"Kentucky","zip_code":"40250","phone":"5024739915"},
{"name":"VonRueden, Armstrong and Bechtelar","street_address":"28 Leroy Pass","street_address_2":"Apt 1242","city":"Huntsville","state":"Texas","zip_code":"77343","phone":"9369020725"},
{"name":"Mueller-Reinger","street_address":"82 Barby Lane","street_address_2":"Room 781","city":"Peoria","state":"Illinois","zip_code":"61656","phone":"3092696379"},
{"name":"Mills, Hudson and Runolfsson","street_address":"2185 Almo Parkway","street_address_2":"Room 143","city":"Charlotte","state":"North Carolina","zip_code":"28220","phone":"7048505603"},
{"name":"Towne Group","street_address":"399 Burning Wood Circle","street_address_2":"PO Box 47403","city":"Canton","state":"Ohio","zip_code":"44720","phone":"3308607506"},
{"name":"Schneider, Boyer and Mueller","street_address":"60806 Gulseth Lane","street_address_2":"PO Box 80688","city":"Stockton","state":"California","zip_code":"95210","phone":"2097125200"},
{"name":"Buckridge, Wisozk and Schmeler","street_address":"8 Oriole Center","street_address_2":"Apt 1386","city":"Fort Worth","state":"Texas","zip_code":"76178","phone":"6821920580"},
{"name":"Purdy, Blanda and MacGyver","street_address":"2 Kensington Junction","street_address_2":"PO Box 15798","city":"Berkeley","state":"California","zip_code":"94705","phone":"5106520375"},
{"name":"Shields, Miller and Hamill","street_address":"9090 Farmco Street","street_address_2":"13th Floor","city":"Jackson","state":"Mississippi","zip_code":"39282","phone":"6016817796"},
{"name":"Russel, Reynolds and Berge","street_address":"64641 Lake View Crossing","street_address_2":"20th Floor","city":"Lincoln","state":"Nebraska","zip_code":"68531","phone":"4025795701"},
{"name":"Larkin LLC","street_address":"5 Bunting Trail","street_address_2":"Suite 61","city":"Kansas City","state":"Missouri","zip_code":"64193","phone":"8161955389"},
{"name":"Koch-Weber","street_address":"8878 Clemons Court","street_address_2":"Apt 489","city":"Los Angeles","state":"California","zip_code":"90025","phone":"3237785150"},
{"name":"Beer-Hayes","street_address":"3 Swallow Crossing","street_address_2":"Room 326","city":"Dallas","state":"Texas","zip_code":"75353","phone":"2143317615"},
{"name":"Runolfsson, Collins and Hilpert","street_address":"994 Jenifer Park","street_address_2":"Suite 54","city":"Saint Louis","state":"Missouri","zip_code":"63167","phone":"3146737964"},
{"name":"Mueller-Bednar","street_address":"452 Dayton Pass","street_address_2":"Suite 52","city":"San Antonio","state":"Texas","zip_code":"78225","phone":"2105020284"},
{"name":"Hand-Dickens","street_address":"28 Troy Park","street_address_2":"Room 1758","city":"Shawnee Mission","state":"Kansas","zip_code":"66215","phone":"9131158319"},
{"name":"O'Reilly LLC","street_address":"62857 Crownhardt Drive","street_address_2":"PO Box 20371","city":"Trenton","state":"New Jersey","zip_code":"08619","phone":"6096839597"},
{"name":"Ritchie Group","street_address":"64 Debra Street","street_address_2":"PO Box 60412","city":"Anaheim","state":"California","zip_code":"92825","phone":"7144656627"},
{"name":"Raynor-Willms","street_address":"463 Veith Place","street_address_2":"PO Box 50898","city":"Herndon","state":"Virginia","zip_code":"22070","phone":"7578213402"},
{"name":"Farrell-McLaughlin","street_address":"50864 Autumn Leaf Center","street_address_2":"Room 1127","city":"Rockville","state":"Maryland","zip_code":"20851","phone":"3019569407"},
{"name":"Donnelly Group","street_address":"1 Arrowood Point","street_address_2":"17th Floor","city":"Oklahoma City","state":"Oklahoma","zip_code":"73147","phone":"4054812515"},
{"name":"Pfannerstill Group","street_address":"07698 Coolidge Court","street_address_2":"Room 1411","city":"Memphis","state":"Tennessee","zip_code":"38131","phone":"9014027093"},
{"name":"Steuber-Huel","street_address":"593 Buhler Trail","street_address_2":"PO Box 46423","city":"Pensacola","state":"Florida","zip_code":"32590","phone":"8506362962"},
{"name":"Crooks-Stroman","street_address":"848 Hagan Pass","street_address_2":"8th Floor","city":"Akron","state":"Ohio","zip_code":"44329","phone":"3306544394"},
{"name":"Herzog LLC","street_address":"15471 Southridge Avenue","street_address_2":"17th Floor","city":"Irvine","state":"California","zip_code":"92710","phone":"7145599271"},
{"name":"Satterfield-Stamm","street_address":"7069 Waywood Pass","street_address_2":"Room 1199","city":"Columbia","state":"South Carolina","zip_code":"29215","phone":"8032491091"},
{"name":"Hauck, Ankunding and Brown","street_address":"67618 Dennis Drive","street_address_2":"12th Floor","city":"Dallas","state":"Texas","zip_code":"75205","phone":"2148933058"},
{"name":"Altenwerth and Sons","street_address":"62 Bluestem Road","street_address_2":"Apt 1200","city":"Des Moines","state":"Iowa","zip_code":"50320","phone":"5154686137"},
{"name":"O'Hara, Kertzmann and Schowalter","street_address":"4972 Dorton Point","street_address_2":"Suite 81","city":"Winston Salem","state":"North Carolina","zip_code":"27110","phone":"3368260730"},
{"name":"Funk LLC","street_address":"4 Rutledge Alley","street_address_2":"6th Floor","city":"Albuquerque","state":"New Mexico","zip_code":"87190","phone":"5052553462"},
{"name":"Witting, Howell and Connelly","street_address":"2 Ohio Street","street_address_2":"PO Box 49451","city":"Los Angeles","state":"California","zip_code":"90060","phone":"3233692306"},
{"name":"Anderson, Hills and Nitzsche","street_address":"1 Northfield Alley","street_address_2":"Room 388","city":"Houston","state":"Texas","zip_code":"77055","phone":"8328483848"},
{"name":"Thiel Group","street_address":"835 Dunning Terrace","street_address_2":"4th Floor","city":"Portland","state":"Oregon","zip_code":"97221","phone":"5039946630"},
{"name":"Bednar, Larkin and Daugherty","street_address":"790 Mifflin Place","street_address_2":"PO Box 86810","city":"Philadelphia","state":"Pennsylvania","zip_code":"19136","phone":"2677591396"},
{"name":"Daniel Inc","street_address":"97 American Ash Avenue","street_address_2":"19th Floor","city":"Roanoke","state":"Virginia","zip_code":"24048","phone":"5403881702"},
{"name":"Wilkinson-Hettinger","street_address":"704 Aberg Drive","street_address_2":"Room 1889","city":"Waterbury","state":"Connecticut","zip_code":"06721","phone":"2032107853"},
{"name":"Turcotte LLC","street_address":"45 Village Terrace","street_address_2":"Room 1651","city":"Columbus","state":"Ohio","zip_code":"43240","phone":"7401466069"},
{"name":"Windler LLC","street_address":"4587 Northland Junction","street_address_2":"3rd Floor","city":"Orlando","state":"Florida","zip_code":"32825","phone":"9547176768"},
{"name":"Marks, Shields and Ferry","street_address":"39 Little Fleur Center","street_address_2":"PO Box 34723","city":"Kalamazoo","state":"Michigan","zip_code":"49048","phone":"5179727575"},
{"name":"Wiegand Inc","street_address":"75 Transport Avenue","street_address_2":"Suite 99","city":"New York City","state":"New York","zip_code":"10019","phone":"2126047788"},
{"name":"Goldner, Nienow and Quitzon","street_address":"034 Macpherson Junction","street_address_2":"10th Floor","city":"Lexington","state":"Kentucky","zip_code":"40524","phone":"8591032705"},
{"name":"Schroeder, Kub and Glover","street_address":"032 Dixon Park","street_address_2":"Suite 72","city":"Anderson","state":"South Carolina","zip_code":"29625","phone":"8643640063"},
{"name":"Rath-Hilll","street_address":"42146 Bayside Plaza","street_address_2":"Room 1503","city":"Bakersfield","state":"California","zip_code":"93305","phone":"6613801997"},
{"name":"Zboncak-Ondricka","street_address":"7525 Farragut Drive","street_address_2":"Apt 1268","city":"Young America","state":"Minnesota","zip_code":"55573","phone":"9524028012"},
{"name":"Larkin-Ferry","street_address":"8 Dwight Lane","street_address_2":"PO Box 96267","city":"Knoxville","state":"Tennessee","zip_code":"37995","phone":"8653426277"},
{"name":"Hodkiewicz-Feest","street_address":"650 Monument Center","street_address_2":"19th Floor","city":"Midland","state":"Michigan","zip_code":"48670","phone":"9894305733"},
{"name":"Sipes and Sons","street_address":"21 Delaware Hill","street_address_2":"Suite 87","city":"Kansas City","state":"Missouri","zip_code":"64190","phone":"8165215666"},
{"name":"Turner, Douglas and Huel","street_address":"3132 Atwood Hill","street_address_2":"2nd Floor","city":"Yakima","state":"Washington","zip_code":"98907","phone":"5099931036"},
{"name":"Will-Frami","street_address":"58 Beilfuss Alley","street_address_2":"Room 368","city":"Garland","state":"Texas","zip_code":"75049","phone":"2141138779"},
{"name":"Turcotte-Harber","street_address":"088 Stoughton Hill","street_address_2":"Room 479","city":"Duluth","state":"Minnesota","zip_code":"55805","phone":"2185790836"},
{"name":"Klocko-O'Hara","street_address":"861 Pierstorff Alley","street_address_2":"Room 1718","city":"El Paso","state":"Texas","zip_code":"88530","phone":"9157946866"},
{"name":"Muller LLC","street_address":"3699 Scoville Center","street_address_2":"Apt 729","city":"El Paso","state":"Texas","zip_code":"88514","phone":"9154666198"},
{"name":"Maggio Group","street_address":"1 Mayer Court","street_address_2":"Room 497","city":"Washington","state":"District of Columbia","zip_code":"20238","phone":"2023423169"},
{"name":"Pagac Group","street_address":"96 Chive Crossing","street_address_2":"Suite 66","city":"Lansing","state":"Michigan","zip_code":"48956","phone":"5178361842"},
{"name":"Flatley Group","street_address":"3 Northland Way","street_address_2":"4th Floor","city":"Aurora","state":"Colorado","zip_code":"80045","phone":"3033844178"},
{"name":"Kutch, Bosco and Howe","street_address":"44457 Blue Bill Park Drive","street_address_2":"PO Box 51376","city":"Fort Wayne","state":"Indiana","zip_code":"46852","phone":"2604260157"},
{"name":"Tillman-Robel","street_address":"8 Larry Pass","street_address_2":"Apt 1484","city":"Houston","state":"Texas","zip_code":"77090","phone":"9368036221"},
{"name":"Dooley, Fadel and Reichel","street_address":"7658 Fuller Terrace","street_address_2":"6th Floor","city":"Syracuse","state":"New York","zip_code":"13210","phone":"3154379180"},
{"name":"Mosciski Inc","street_address":"0 Talmadge Alley","street_address_2":"Suite 17","city":"Miami","state":"Florida","zip_code":"33147","phone":"3059633965"},
{"name":"Dietrich Group","street_address":"04221 Lake View Drive","street_address_2":"Apt 1584","city":"Henderson","state":"Nevada","zip_code":"89074","phone":"7027680196"},
{"name":"Stanton-Satterfield","street_address":"71811 Hayes Park","street_address_2":"Suite 24","city":"Seattle","state":"Washington","zip_code":"98109","phone":"4255987904"},
{"name":"Collins LLC","street_address":"31 Union Crossing","street_address_2":"Room 1593","city":"Gainesville","state":"Florida","zip_code":"32610","phone":"3521243762"},
{"name":"Wisozk, O'Conner and Goodwin","street_address":"2361 Welch Plaza","street_address_2":"Apt 1404","city":"Dallas","state":"Texas","zip_code":"75221","phone":"9722695900"},
{"name":"Powlowski Inc","street_address":"47 Hoepker Center","street_address_2":"Apt 1712","city":"Tampa","state":"Florida","zip_code":"33694","phone":"8132272265"},
{"name":"Schmidt-Adams","street_address":"53 Onsgard Crossing","street_address_2":"PO Box 47675","city":"North Las Vegas","state":"Nevada","zip_code":"89036","phone":"7023793821"},
{"name":"Dare-Miller","street_address":"97 Ryan Street","street_address_2":"Suite 69","city":"Flint","state":"Michigan","zip_code":"48555","phone":"8105507245"},
{"name":"Spencer LLC","street_address":"53686 Dunning Alley","street_address_2":"PO Box 65183","city":"Orlando","state":"Florida","zip_code":"32803","phone":"3216325858"},
{"name":"Kihn, Lind and Hartmann","street_address":"216 Pennsylvania Point","street_address_2":"14th Floor","city":"Roanoke","state":"Virginia","zip_code":"24024","phone":"5404716491"},
{"name":"Lowe Group","street_address":"7 Killdeer Road","street_address_2":"14th Floor","city":"Hartford","state":"Connecticut","zip_code":"06145","phone":"8606483617"},
{"name":"Monahan-DuBuque","street_address":"2 Montana Place","street_address_2":"PO Box 5201","city":"Plano","state":"Texas","zip_code":"75074","phone":"4699127158"},
{"name":"Hodkiewicz-Bechtelar","street_address":"63004 Loftsgordon Place","street_address_2":"Apt 1468","city":"Knoxville","state":"Tennessee","zip_code":"37924","phone":"8652804242"},
{"name":"Altenwerth-Schultz","street_address":"25517 Lakewood Gardens Center","street_address_2":"12th Floor","city":"Gainesville","state":"Florida","zip_code":"32610","phone":"3526730356"},
{"name":"Pouros-Dicki","street_address":"937 Pond Court","street_address_2":"Suite 19","city":"Dallas","state":"Texas","zip_code":"75392","phone":"2146608180"},
{"name":"Upton-Sauer","street_address":"17 Stone Corner Point","street_address_2":"PO Box 77783","city":"Orlando","state":"Florida","zip_code":"32830","phone":"4072571290"},
{"name":"Spinka-Fahey","street_address":"6 Glendale Alley","street_address_2":"3rd Floor","city":"Spokane","state":"Washington","zip_code":"99210","phone":"5091911439"},
{"name":"Cassin-Kiehn","street_address":"6 Corry Crossing","street_address_2":"Apt 1650","city":"Dallas","state":"Texas","zip_code":"75246","phone":"2148426136"},
{"name":"Langworth-Kuvalis","street_address":"1 Northport Trail","street_address_2":"Room 883","city":"Phoenix","state":"Arizona","zip_code":"85077","phone":"6023195647"},
{"name":"Beahan-Greenholt","street_address":"785 Melby Junction","street_address_2":"Room 1122","city":"Largo","state":"Florida","zip_code":"33777","phone":"7274932824"},
{"name":"Hegmann-Kovacek","street_address":"2767 Ridge Oak Lane","street_address_2":"Room 390","city":"San Antonio","state":"Texas","zip_code":"78240","phone":"2101337415"},
{"name":"Kutch LLC","street_address":"558 Veith Court","street_address_2":"Apt 58","city":"Spokane","state":"Washington","zip_code":"99220","phone":"5095032151"},
{"name":"Block and Sons","street_address":"991 Fair Oaks Park","street_address_2":"Suite 41","city":"Lawrenceville","state":"Georgia","zip_code":"30245","phone":"6786985048"},
{"name":"Rippin Inc","street_address":"3 Fremont Way","street_address_2":"9th Floor","city":"Portland","state":"Oregon","zip_code":"97229","phone":"5038106898"},
{"name":"Koelpin-Murray","street_address":"84 Pepper Wood Center","street_address_2":"PO Box 10542","city":"Louisville","state":"Kentucky","zip_code":"40266","phone":"5023283884"},
{"name":"Bogan LLC","street_address":"114 Marcy Alley","street_address_2":"Suite 89","city":"Santa Fe","state":"New Mexico","zip_code":"87505","phone":"5057483169"},
{"name":"Mayert-Kuhic","street_address":"80 Manley Drive","street_address_2":"6th Floor","city":"Dallas","state":"Texas","zip_code":"75287","phone":"2141332419"},
{"name":"Kuhn and Sons","street_address":"4992 Tomscot Point","street_address_2":"Apt 1088","city":"Oakland","state":"California","zip_code":"94622","phone":"5109770947"},
{"name":"Herman Group","street_address":"3 Gina Drive","street_address_2":"PO Box 61384","city":"Shawnee Mission","state":"Kansas","zip_code":"66205","phone":"8166328816"},
{"name":"Zboncak Group","street_address":"107 Bowman Trail","street_address_2":"Suite 42","city":"Topeka","state":"Kansas","zip_code":"66699","phone":"7853930243"},
{"name":"Huel-Koelpin","street_address":"19 Nelson Plaza","street_address_2":"PO Box 74287","city":"Naples","state":"Florida","zip_code":"34108","phone":"9415223656"},
{"name":"Bauch, Funk and Okuneva","street_address":"27114 Old Shore Road","street_address_2":"Suite 100","city":"Clearwater","state":"Florida","zip_code":"33763","phone":"7275029985"},
{"name":"Sauer-O'Keefe","street_address":"33599 Mayfield Junction","street_address_2":"Apt 1380","city":"Oakland","state":"California","zip_code":"94627","phone":"5103382027"},
{"name":"Jakubowski-Shanahan","street_address":"1 Autumn Leaf Alley","street_address_2":"PO Box 26349","city":"Fort Lauderdale","state":"Florida","zip_code":"33336","phone":"7543858039"},
{"name":"Flatley, Harris and Ondricka","street_address":"02356 Kings Drive","street_address_2":"8th Floor","city":"Grand Forks","state":"North Dakota","zip_code":"58207","phone":"7016739553"},
{"name":"Buckridge-O'Connell","street_address":"854 Scoville Parkway","street_address_2":"Suite 24","city":"San Luis Obispo","state":"California","zip_code":"93407","phone":"8057887498"},
{"name":"Bailey-Schaefer","street_address":"81 Hooker Crossing","street_address_2":"Apt 1377","city":"Greensboro","state":"North Carolina","zip_code":"27415","phone":"3364795242"},
{"name":"Kuhlman Group","street_address":"004 Ruskin Court","street_address_2":"Apt 1709","city":"Charlotte","state":"North Carolina","zip_code":"28235","phone":"7049473418"},
{"name":"Daniel, Smith and Jerde","street_address":"38 Main Lane","street_address_2":"Room 525","city":"Huntington","state":"West Virginia","zip_code":"25775","phone":"3044748889"},
{"name":"Flatley, Dicki and Torphy","street_address":"7365 Messerschmidt Way","street_address_2":"13th Floor","city":"Miami","state":"Florida","zip_code":"33142","phone":"7869356971"},
{"name":"Koss, Kub and Heathcote","street_address":"4515 Carberry Alley","street_address_2":"Suite 69","city":"Albuquerque","state":"New Mexico","zip_code":"87105","phone":"5055223159"},
{"name":"Reichert, Lemke and Wiza","street_address":"58 Susan Place","street_address_2":"Suite 91","city":"Orlando","state":"Florida","zip_code":"32808","phone":"3213832133"},
{"name":"Rolfson, Brakus and Cole","street_address":"370 Schurz Center","street_address_2":"Apt 337","city":"Reno","state":"Nevada","zip_code":"89510","phone":"7751215701"},
{"name":"Balistreri Group","street_address":"527 Crownhardt Court","street_address_2":"Room 1302","city":"Bonita Springs","state":"Florida","zip_code":"34135","phone":"9411234006"},
{"name":"Yundt-McDermott","street_address":"3543 Northport Crossing","street_address_2":"Room 582","city":"Henderson","state":"Nevada","zip_code":"89012","phone":"7028009502"},
{"name":"Rodriguez, Hilpert and Senger","street_address":"7 Talisman Road","street_address_2":"PO Box 19967","city":"Madison","state":"Wisconsin","zip_code":"53726","phone":"6082533553"},
{"name":"Hirthe, Stoltenberg and Schmeler","street_address":"07 Canary Alley","street_address_2":"Suite 82","city":"San Diego","state":"California","zip_code":"92137","phone":"6197132640"},
{"name":"Turcotte, Hackett and Hauck","street_address":"6677 Roxbury Parkway","street_address_2":"Room 482","city":"Manchester","state":"New Hampshire","zip_code":"03105","phone":"6036888717"},
{"name":"Bruen, Roob and Price","street_address":"07133 Golden Leaf Road","street_address_2":"4th Floor","city":"Sacramento","state":"California","zip_code":"94250","phone":"9164005698"},
{"name":"Jakubowski-Mertz","street_address":"658 Atwood Lane","street_address_2":"Apt 902","city":"Salt Lake City","state":"Utah","zip_code":"84110","phone":"8017181560"},
{"name":"Haag and Sons","street_address":"30 Moulton Avenue","street_address_2":"17th Floor","city":"Roanoke","state":"Virginia","zip_code":"24014","phone":"5405612396"},
{"name":"Brekke Group","street_address":"34 Graedel Avenue","street_address_2":"Suite 65","city":"New Orleans","state":"Louisiana","zip_code":"70160","phone":"5043681997"},
{"name":"Lang Inc","street_address":"893 Packers Parkway","street_address_2":"Apt 1976","city":"Denver","state":"Colorado","zip_code":"80243","phone":"3038904230"},
{"name":"Durgan-Willms","street_address":"583 Corscot Pass","street_address_2":"Suite 8","city":"Huntington","state":"West Virginia","zip_code":"25709","phone":"3042687216"},
{"name":"Borer Group","street_address":"109 Golf View Terrace","street_address_2":"Suite 67","city":"Albany","state":"New York","zip_code":"12205","phone":"5184319833"},
{"name":"Tromp-Hickle","street_address":"2 Prairie Rose Court","street_address_2":"Apt 124","city":"Salt Lake City","state":"Utah","zip_code":"84152","phone":"8017312888"},
{"name":"Hegmann, Grant and Carroll","street_address":"35544 Surrey Park","street_address_2":"Apt 1920","city":"Oklahoma City","state":"Oklahoma","zip_code":"73142","phone":"4054398409"},
{"name":"Stamm-Cartwright","street_address":"91105 Arrowood Alley","street_address_2":"Room 495","city":"Johnson City","state":"Tennessee","zip_code":"37605","phone":"4237078127"},
{"name":"Herzog-Gulgowski","street_address":"246 Morning Terrace","street_address_2":"Apt 1235","city":"Raleigh","state":"North Carolina","zip_code":"27690","phone":"9197739416"},
{"name":"Treutel LLC","street_address":"4404 Clemons Alley","street_address_2":"Room 1240","city":"Des Moines","state":"Iowa","zip_code":"50315","phone":"6411730468"},
{"name":"Murazik-Daniel","street_address":"694 Macpherson Pass","street_address_2":"3rd Floor","city":"Suffolk","state":"Virginia","zip_code":"23436","phone":"7571026898"},
{"name":"Harris LLC","street_address":"786 Iowa Way","street_address_2":"PO Box 1892","city":"Philadelphia","state":"Pennsylvania","zip_code":"19184","phone":"2151933166"},
{"name":"Breitenberg-Toy","street_address":"7 Meadow Ridge Road","street_address_2":"PO Box 42795","city":"Wichita","state":"Kansas","zip_code":"67220","phone":"3169942777"},
{"name":"Nitzsche-Buckridge","street_address":"645 David Plaza","street_address_2":"Room 303","city":"Lafayette","state":"Indiana","zip_code":"47905","phone":"7655327021"},
{"name":"Macejkovic Group","street_address":"151 Dexter Circle","street_address_2":"Suite 30","city":"Jamaica","state":"New York","zip_code":"11436","phone":"9179502083"},
{"name":"Ortiz LLC","street_address":"659 Norway Maple Terrace","street_address_2":"Suite 33","city":"Colorado Springs","state":"Colorado","zip_code":"80940","phone":"7194876780"},
{"name":"Hermann, Kihn and Trantow","street_address":"033 Mitchell Way","street_address_2":"10th Floor","city":"Minneapolis","state":"Minnesota","zip_code":"55458","phone":"6121098102"},
{"name":"Torp LLC","street_address":"4 New Castle Circle","street_address_2":"Apt 1957","city":"Ashburn","state":"Virginia","zip_code":"22093","phone":"5714214111"},
{"name":"Bode Group","street_address":"91 Fulton Pass","street_address_2":"Suite 60","city":"Cleveland","state":"Ohio","zip_code":"44197","phone":"2166526022"},
{"name":"Corwin Inc","street_address":"0603 Scott Junction","street_address_2":"8th Floor","city":"Plano","state":"Texas","zip_code":"75074","phone":"2144401853"},
{"name":"Cormier Inc","street_address":"3203 Debra Hill","street_address_2":"Apt 1527","city":"Alexandria","state":"Virginia","zip_code":"22313","phone":"5719378592"},
{"name":"Dooley-Spinka","street_address":"1508 Sachtjen Avenue","street_address_2":"Room 17","city":"Santa Fe","state":"New Mexico","zip_code":"87592","phone":"5052830987"},
{"name":"Dare-Walter","street_address":"4894 Clemons Alley","street_address_2":"Suite 85","city":"New Haven","state":"Connecticut","zip_code":"06520","phone":"2035474944"},
{"name":"Orn, Little and McClure","street_address":"98584 Mosinee Point","street_address_2":"Room 1218","city":"Reston","state":"Virginia","zip_code":"20195","phone":"7039532477"},
{"name":"Morar-Mayer","street_address":"28 Forest Run Pass","street_address_2":"Room 1765","city":"Louisville","state":"Kentucky","zip_code":"40287","phone":"5025997243"},
{"name":"Jones, Stracke and Bernhard","street_address":"9718 Toban Court","street_address_2":"Suite 57","city":"Columbia","state":"South Carolina","zip_code":"29220","phone":"8033282260"},
{"name":"Kihn, Nienow and Douglas","street_address":"831 Service Circle","street_address_2":"Room 727","city":"Des Moines","state":"Iowa","zip_code":"50362","phone":"5155333695"},
{"name":"Kling LLC","street_address":"40 Saint Paul Lane","street_address_2":"Suite 61","city":"Pueblo","state":"Colorado","zip_code":"81010","phone":"7197894785"},
{"name":"Carter, Sauer and Doyle","street_address":"063 Coleman Park","street_address_2":"18th Floor","city":"Charleston","state":"West Virginia","zip_code":"25321","phone":"3046207939"},
{"name":"Carroll LLC","street_address":"1 Petterle Crossing","street_address_2":"PO Box 28131","city":"Seattle","state":"Washington","zip_code":"98158","phone":"4255359090"},
{"name":"Pfeffer, Romaguera and Davis","street_address":"4994 Hallows Alley","street_address_2":"5th Floor","city":"Tuscaloosa","state":"Alabama","zip_code":"35487","phone":"2058613290"},
{"name":"Bergstrom-Hoppe","street_address":"0 Evergreen Road","street_address_2":"Apt 1396","city":"Whittier","state":"California","zip_code":"90610","phone":"5622791282"},
{"name":"Kulas-Powlowski","street_address":"452 Mandrake Parkway","street_address_2":"7th Floor","city":"Atlanta","state":"Georgia","zip_code":"31132","phone":"4047476897"},
{"name":"Kling, Abernathy and Waelchi","street_address":"06452 Arkansas Street","street_address_2":"PO Box 1793","city":"New York City","state":"New York","zip_code":"10150","phone":"2125518126"},
{"name":"Dare LLC","street_address":"32 Del Mar Way","street_address_2":"Suite 53","city":"Los Angeles","state":"California","zip_code":"90094","phone":"3233377433"},
{"name":"Lowe-Harris","street_address":"001 Macpherson Junction","street_address_2":"PO Box 19651","city":"Pittsburgh","state":"Pennsylvania","zip_code":"15210","phone":"7243259076"},
{"name":"Ullrich-Koepp","street_address":"60 Calypso Trail","street_address_2":"Room 1558","city":"Bradenton","state":"Florida","zip_code":"34210","phone":"9411559489"},
{"name":"Schinner-Feest","street_address":"2 Grover Circle","street_address_2":"Room 342","city":"San Antonio","state":"Texas","zip_code":"78220","phone":"2106569792"},
{"name":"Parisian, Schoen and Ferry","street_address":"0 Quincy Way","street_address_2":"Room 713","city":"Richmond","state":"Virginia","zip_code":"23220","phone":"8042545160"},
{"name":"Hilll-Doyle","street_address":"43 Rutledge Hill","street_address_2":"Apt 712","city":"Corpus Christi","state":"Texas","zip_code":"78405","phone":"3618951958"},
{"name":"Breitenberg, Stanton and Paucek","street_address":"5 Memorial Trail","street_address_2":"Suite 36","city":"Topeka","state":"Kansas","zip_code":"66642","phone":"7859224637"},
{"name":"Walker-Rau","street_address":"42 Sauthoff Park","street_address_2":"Room 1049","city":"Riverside","state":"California","zip_code":"92519","phone":"9517755950"},
{"name":"Harris Group","street_address":"4 Mandrake Drive","street_address_2":"Room 214","city":"Arlington","state":"Texas","zip_code":"76004","phone":"8176146561"},
{"name":"Heller, Stiedemann and Crooks","street_address":"568 Helena Junction","street_address_2":"Suite 15","city":"New Orleans","state":"Louisiana","zip_code":"70129","phone":"5047127960"},
{"name":"Hintz-Morissette","street_address":"5693 Westend Drive","street_address_2":"PO Box 78066","city":"Brea","state":"California","zip_code":"92822","phone":"7145595480"},
{"name":"Parisian, Bogisich and Dare","street_address":"6 Lunder Avenue","street_address_2":"PO Box 41024","city":"Colorado Springs","state":"Colorado","zip_code":"80930","phone":"7196392391"},
{"name":"Mills-Kshlerin","street_address":"4234 Logan Pass","street_address_2":"Apt 1022","city":"Los Angeles","state":"California","zip_code":"90010","phone":"3109389004"},
{"name":"Turner and Sons","street_address":"1983 Elmside Lane","street_address_2":"Apt 943","city":"Raleigh","state":"North Carolina","zip_code":"27626","phone":"9195306805"},
{"name":"Treutel, Moen and Quigley","street_address":"52316 Cardinal Parkway","street_address_2":"Suite 80","city":"Denver","state":"Colorado","zip_code":"80217","phone":"3031218826"},
{"name":"Gutmann and Sons","street_address":"25122 Lakeland Way","street_address_2":"PO Box 73468","city":"Greensboro","state":"North Carolina","zip_code":"27455","phone":"9105839406"},
{"name":"Hodkiewicz-Hahn","street_address":"158 Rigney Center","street_address_2":"PO Box 45999","city":"San Bernardino","state":"California","zip_code":"92410","phone":"9517471057"},
{"name":"Toy-Veum","street_address":"760 Gina Park","street_address_2":"13th Floor","city":"Minneapolis","state":"Minnesota","zip_code":"55423","phone":"9524163676"},
{"name":"Morar, Grant and Walter","street_address":"23 Thierer Drive","street_address_2":"Suite 28","city":"El Paso","state":"Texas","zip_code":"79928","phone":"9159766293"},
{"name":"Cassin, Rempel and Harris","street_address":"6 Porter Court","street_address_2":"Suite 15","city":"Oakland","state":"California","zip_code":"94605","phone":"5107102643"},
{"name":"Braun Inc","street_address":"8 Kedzie Terrace","street_address_2":"Apt 1418","city":"Birmingham","state":"Alabama","zip_code":"35231","phone":"2055315052"},
{"name":"Hirthe-Green","street_address":"648 Cody Trail","street_address_2":"Room 1939","city":"Fresno","state":"California","zip_code":"93704","phone":"2094466104"},
{"name":"Schaden and Sons","street_address":"3 Dawn Junction","street_address_2":"11th Floor","city":"Buffalo","state":"New York","zip_code":"14276","phone":"7168670712"},
{"name":"Hyatt, Waelchi and Wilderman","street_address":"21 Atwood Circle","street_address_2":"PO Box 65151","city":"Saint Louis","state":"Missouri","zip_code":"63143","phone":"3145147998"},
{"name":"Bruen-Yundt","street_address":"01 Weeping Birch Drive","street_address_2":"10th Floor","city":"Phoenix","state":"Arizona","zip_code":"85053","phone":"6024754605"},
{"name":"Mitchell, Bernhard and Rowe","street_address":"840 Dennis Drive","street_address_2":"PO Box 13804","city":"Fort Myers","state":"Florida","zip_code":"33994","phone":"2393549003"},
{"name":"Reynolds-Hilll","street_address":"4804 Mayfield Terrace","street_address_2":"Room 1387","city":"Orlando","state":"Florida","zip_code":"32808","phone":"4073144291"},
{"name":"Rolfson-Adams","street_address":"730 Doe Crossing Way","street_address_2":"20th Floor","city":"Chicago","state":"Illinois","zip_code":"60619","phone":"3125960832"},
{"name":"Witting Group","street_address":"459 New Castle Drive","street_address_2":"Suite 13","city":"Round Rock","state":"Texas","zip_code":"78682","phone":"5125855388"},
{"name":"Reichert, Legros and Franecki","street_address":"3105 Canary Avenue","street_address_2":"15th Floor","city":"Denton","state":"Texas","zip_code":"76205","phone":"8178353207"},
{"name":"Bednar Group","street_address":"01 Cascade Lane","street_address_2":"Apt 612","city":"Chicago","state":"Illinois","zip_code":"60674","phone":"3124313646"},
{"name":"Kuhlman, Bednar and Herman","street_address":"710 Golf Course Point","street_address_2":"14th Floor","city":"Newton","state":"Massachusetts","zip_code":"02458","phone":"7818806086"},
{"name":"Jakubowski LLC","street_address":"6 Arapahoe Street","street_address_2":"Apt 331","city":"Minneapolis","state":"Minnesota","zip_code":"55402","phone":"7637638769"},
{"name":"Monahan, Brown and Corkery","street_address":"48 Dryden Junction","street_address_2":"PO Box 84378","city":"Salt Lake City","state":"Utah","zip_code":"84140","phone":"8018146063"},
{"name":"Howe-Luettgen","street_address":"076 Moland Avenue","street_address_2":"Suite 3","city":"Albany","state":"New York","zip_code":"12237","phone":"5186044037"},
{"name":"Kertzmann and Sons","street_address":"77725 Ridgeview Terrace","street_address_2":"Suite 29","city":"Worcester","state":"Massachusetts","zip_code":"01610","phone":"5089398752"},
{"name":"Brakus, Trantow and Heidenreich","street_address":"624 Stuart Pass","street_address_2":"PO Box 26695","city":"Saint Louis","state":"Missouri","zip_code":"63167","phone":"3146011414"}]